#Pass ID: 20260109_175810_NOAA 21 (JPSS-2)
#Satellite: NOAA 21 (JPSS-2)
#Configuration: NOAA-21
#almurnet v.1.7.20240730
#Start time: 2026-01-09 17:58:09

#Version: 2.2.20231116
#Station: X_Chapaevo_01
#Location: 129.39018 lon 61.66317 lat
#TLE: 1 54234U 22150A   26008.59854928  .00000127  00000+0  81204-4 0  9992
#TLE: 2 54234  98.7494 309.5759 0000887 327.7487  32.3634 14.19533414163905

#Time	Az	El	Level	Level2	SNR	BER	BlckErr	Temp	State	Recorded	gain1	gain2
#2026-01-09 17:58:09.004000	device inactive

#Closed at: 2026-01-09 17:58:09
#Recorded file [0 MB]: 